CTC2_L_00004001-01
1 10000U 23932BH  26075.70040509  .00000000  00000+0  00000-0 0  9994
2 10000  90.0000   0.0000 0000000   0.0000   0.0000 15.90815360    11
CTC2_L_00004001-02
1 10001U 24382SF  26075.70040509  .00000000  00000+0  00000-0 0  9995
2 10001  90.0000   0.0000 0000000   0.0000  90.0000 15.90815360    11
CTC2_L_00004001-03
1 10002U 25473XR  26075.70040509  .00000000  00000+0  00000-0 0  9998
2 10002  90.0000   0.0000 0000000   0.0000 180.0000 15.90815360    12
CTC2_L_00004001-04
1 10003U 22479LU  26075.70040509  .00000000  00000+0  00000-0 0  9992
2 10003  90.0000   0.0000 0000000   0.0000 270.0000 15.90815360    13
CTC2_L_00004002-01
1 10004U 22508FP  26075.70040509  .00000000  00000+0  00000-0 0  9996
2 10004  90.0000  12.0000 0000000   0.0000  12.0000 15.90815360    11
CTC2_L_00004002-02
1 10005U 26315SX  26075.70040509  .00000000  00000+0  00000-0 0  9997
2 10005  90.0000  12.0000 0000000   0.0000 102.0000 15.90815360    12
CTC2_L_00004002-03
1 10006U 26159LM  26075.70040509  .00000000  00000+0  00000-0 0  9994
2 10006  90.0000  12.0000 0000000   0.0000 192.0000 15.90815360    12
CTC2_L_00004002-04
1 10007U 24085ZV  26075.70040509  .00000000  00000+0  00000-0 0  9991
2 10007  90.0000  12.0000 0000000   0.0000 282.0000 15.90815360    13
CTC2_L_00004003-01
1 10008U 24934QG  26075.70040509  .00000000  00000+0  00000-0 0  9995
2 10008  90.0000  24.0000 0000000   0.0000  24.0000 15.90815360    11
CTC2_L_00004003-02
1 10009U 22250YG  26075.70040509  .00000000  00000+0  00000-0 0  9995
2 10009  90.0000  24.0000 0000000   0.0000 114.0000 15.90815360    12
CTC2_L_00004003-03
1 10010U 23042FW  26075.70040509  .00000000  00000+0  00000-0 0  9997
2 10010  90.0000  24.0000 0000000   0.0000 204.0000 15.90815360    14
CTC2_L_00004003-04
1 10011U 22895XZ  26075.70040509  .00000000  00000+0  00000-0 0  9993
2 10011  90.0000  24.0000 0000000   0.0000 294.0000 15.90815360    14
CTC2_L_00004004-01
1 10012U 25312SM  26075.70040509  .00000000  00000+0  00000-0 0  9991
2 10012  90.0000  36.0000 0000000   0.0000  36.0000 15.90815360    12
CTC2_L_00004004-02
1 10013U 23507L   26075.70040509  .00000000  00000+0  00000-0 0  9996
2 10013  90.0000  36.0000 0000000   0.0000 126.0000 15.90815360    13
CTC2_L_00004004-03
1 10014U 26658ED  26075.70040509  .00000000  00000+0  00000-0 0  9997
2 10014  90.0000  36.0000 0000000   0.0000 216.0000 15.90815360    14
CTC2_L_00004004-04
1 10015U 25806UG  26075.70040509  .00000000  00000+0  00000-0 0  9992
2 10015  90.0000  36.0000 0000000   0.0000 306.0000 15.90815360    15
CTC2_L_00004005-01
1 10016U 22197HY  26075.70040509  .00000000  00000+0  00000-0 0  9993
2 10016  90.0000  48.0000 0000000   0.0000  48.0000 15.90815360    12
CTC2_L_00004005-02
1 10017U 23233VS  26075.70040509  .00000000  00000+0  00000-0 0  9996
2 10017  90.0000  48.0000 0000000   0.0000 138.0000 15.90815360    13
CTC2_L_00004005-03
1 10018U 26061IB  26075.70040509  .00000000  00000+0  00000-0 0  9999
2 10018  90.0000  48.0000 0000000   0.0000 228.0000 15.90815360    14
CTC2_L_00004005-04
1 10019U 25184YY  26075.70040509  .00000000  00000+0  00000-0 0  9995
2 10019  90.0000  48.0000 0000000   0.0000 318.0000 15.90815360    15
CTC2_L_00004006-01
1 10020U 22174LN  26075.70040509  .00000000  00000+0  00000-0 0  9993
2 10020  90.0000  60.0000 0000000   0.0000  60.0000 15.90815360    15
CTC2_L_00004006-02
1 10021U 23512HF  26075.70040509  .00000000  00000+0  00000-0 0  9991
2 10021  90.0000  60.0000 0000000   0.0000 150.0000 15.90815360    16
CTC2_L_00004006-03
1 10022U 22488YF  26075.70040509  .00000000  00000+0  00000-0 0  9993
2 10022  90.0000  60.0000 0000000   0.0000 240.0000 15.90815360    17
CTC2_L_00004006-04
1 10023U 23802QE  26075.70040509  .00000000  00000+0  00000-0 0  9995
2 10023  90.0000  60.0000 0000000   0.0000 330.0000 15.90815360    18
CTC2_L_00004007-01
1 10024U 24206BY  26075.70040509  .00000000  00000+0  00000-0 0  9995
2 10024  90.0000  72.0000 0000000   0.0000  72.0000 15.90815360    15
CTC2_L_00004007-02
1 10025U 24707LW  26075.70040509  .00000000  00000+0  00000-0 0  9992
2 10025  90.0000  72.0000 0000000   0.0000 162.0000 15.90815360    16
CTC2_L_00004007-03
1 10026U 22492LA  26075.70040509  .00000000  00000+0  00000-0 0  9992
2 10026  90.0000  72.0000 0000000   0.0000 252.0000 15.90815360    17
CTC2_L_00004007-04
1 10027U 26131DM  26075.70040509  .00000000  00000+0  00000-0 0  9997
2 10027  90.0000  72.0000 0000000   0.0000 342.0000 15.90815360    18
CTC2_L_00004008-01
1 10028U 25132MI  26075.70040509  .00000000  00000+0  00000-0 0  9998
2 10028  90.0000  84.0000 0000000   0.0000  84.0000 15.90815360    15
CTC2_L_00004008-02
1 10029U 22750FM  26075.70040509  .00000000  00000+0  00000-0 0  9992
2 10029  90.0000  84.0000 0000000   0.0000 174.0000 15.90815360    16
CTC2_L_00004008-03
1 10030U 24615HG  26075.70040509  .00000000  00000+0  00000-0 0  9996
2 10030  90.0000  84.0000 0000000   0.0000 264.0000 15.90815360    18
CTC2_L_00004008-04
1 10031U 24621WZ  26075.70040509  .00000000  00000+0  00000-0 0  9994
2 10031  90.0000  84.0000 0000000   0.0000 354.0000 15.90815360    19
CTC2_L_00004009-01
1 10032U 23249ZM  26075.70040509  .00000000  00000+0  00000-0 0  9990
2 10032  90.0000  96.0000 0000000   0.0000  96.0000 15.90815360    16
CTC2_L_00004009-02
1 10033U 23497KV  26075.70040509  .00000000  00000+0  00000-0 0  9996
2 10033  90.0000  96.0000 0000000   0.0000 186.0000 15.90815360    17
CTC2_L_00004009-03
1 10034U 22154SV  26075.70040509  .00000000  00000+0  00000-0 0  9996
2 10034  90.0000  96.0000 0000000   0.0000 276.0000 15.90815360    18
CTC2_L_00004009-04
1 10035U 25806QR  26075.70040509  .00000000  00000+0  00000-0 0  9994
2 10035  90.0000  96.0000 0000000   0.0000   6.0000 15.90815360    10
CTC2_L_00004010-01
1 10036U 22238PO  26075.70040509  .00000000  00000+0  00000-0 0  9991
2 10036  90.0000 108.0000 0000000   0.0000 108.0000 15.90815360    18
CTC2_L_00004010-02
1 10037U 26857GF  26075.70040509  .00000000  00000+0  00000-0 0  9993
2 10037  90.0000 108.0000 0000000   0.0000 198.0000 15.90815360    18
CTC2_L_00004010-03
1 10038U 24755IN  26075.70040509  .00000000  00000+0  00000-0 0  9999
2 10038  90.0000 108.0000 0000000   0.0000 288.0000 15.90815360    19
CTC2_L_00004010-04
1 10039U 22176EB  26075.70040509  .00000000  00000+0  00000-0 0  9995
2 10039  90.0000 108.0000 0000000   0.0000  18.0000 15.90815360    11
CTC2_L_00004011-01
1 10040U 26345IC  26075.70040509  .00000000  00000+0  00000-0 0  9999
2 10040  90.0000 120.0000 0000000   0.0000 120.0000 15.90815360    11
CTC2_L_00004011-02
1 10041U 23652GN  26075.70040509  .00000000  00000+0  00000-0 0  9998
2 10041  90.0000 120.0000 0000000   0.0000 210.0000 15.90815360    12
CTC2_L_00004011-03
1 10042U 24298E   26075.70040509  .00000000  00000+0  00000-0 0  9996
2 10042  90.0000 120.0000 0000000   0.0000 300.0000 15.90815360    13
CTC2_L_00004011-04
1 10043U 25526VW  26075.70040509  .00000000  00000+0  00000-0 0  9992
2 10043  90.0000 120.0000 0000000   0.0000  30.0000 15.90815360    14
CTC2_L_00004012-01
1 10044U 23945EG  26075.70040509  .00000000  00000+0  00000-0 0  9996
2 10044  90.0000 132.0000 0000000   0.0000 132.0000 15.90815360    11
CTC2_L_00004012-02
1 10045U 26581LC  26075.70040509  .00000000  00000+0  00000-0 0  9996
2 10045  90.0000 132.0000 0000000   0.0000 222.0000 15.90815360    12
CTC2_L_00004012-03
1 10046U 25121BJ  26075.70040509  .00000000  00000+0  00000-0 0  9996
2 10046  90.0000 132.0000 0000000   0.0000 312.0000 15.90815360    13
CTC2_L_00004012-04
1 10047U 22541EE  26075.70040509  .00000000  00000+0  00000-0 0  9990
2 10047  90.0000 132.0000 0000000   0.0000  42.0000 15.90815360    14
CTC2_L_00004013-01
1 10048U 25531YU  26075.70040509  .00000000  00000+0  00000-0 0  9993
2 10048  90.0000 144.0000 0000000   0.0000 144.0000 15.90815360    11
CTC2_L_00004013-02
1 10049U 25930XD  26075.70040509  .00000000  00000+0  00000-0 0  9997
2 10049  90.0000 144.0000 0000000   0.0000 234.0000 15.90815360    12
CTC2_L_00004013-03
1 10050U 26975NN  26075.70040509  .00000000  00000+0  00000-0 0  9999
2 10050  90.0000 144.0000 0000000   0.0000 324.0000 15.90815360    14
CTC2_L_00004013-04
1 10051U 23274TL  26075.70040509  .00000000  00000+0  00000-0 0  9999
2 10051  90.0000 144.0000 0000000   0.0000  54.0000 15.90815360    15
CTC2_L_00004014-01
1 10052U 22559BX  26075.70040509  .00000000  00000+0  00000-0 0  9995
2 10052  90.0000 156.0000 0000000   0.0000 156.0000 15.90815360    12
CTC2_L_00004014-02
1 10053U 22367OV  26075.70040509  .00000000  00000+0  00000-0 0  9993
2 10053  90.0000 156.0000 0000000   0.0000 246.0000 15.90815360    13
CTC2_L_00004014-03
1 10054U 24732NT  26075.70040509  .00000000  00000+0  00000-0 0  9992
2 10054  90.0000 156.0000 0000000   0.0000 336.0000 15.90815360    14
CTC2_L_00004014-04
1 10055U 24294IO  26075.70040509  .00000000  00000+0  00000-0 0  9996
2 10055  90.0000 156.0000 0000000   0.0000  66.0000 15.90815360    15
CTC2_L_00004015-01
1 10056U 25161UW  26075.70040509  .00000000  00000+0  00000-0 0  9991
2 10056  90.0000 168.0000 0000000   0.0000 168.0000 15.90815360    12
CTC2_L_00004015-02
1 10057U 25679NI  26075.70040509  .00000000  00000+0  00000-0 0  9996
2 10057  90.0000 168.0000 0000000   0.0000 258.0000 15.90815360    13
CTC2_L_00004015-03
1 10058U 24762HK  26075.70040509  .00000000  00000+0  00000-0 0  9999
2 10058  90.0000 168.0000 0000000   0.0000 348.0000 15.90815360    14
CTC2_L_00004015-04
1 10059U 26529BG  26075.70040509  .00000000  00000+0  00000-0 0  9993
2 10059  90.0000 168.0000 0000000   0.0000  78.0000 15.90815360    15
CTC2_L_00004016-01
1 10060U 23362DT  26075.70040509  .00000000  00000+0  00000-0 0  9997
2 10060  90.0000 180.0000 0000000   0.0000 180.0000 15.90815360    15
CTC2_L_00004016-02
1 10061U 26107FQ  26075.70040509  .00000000  00000+0  00000-0 0  9998
2 10061  90.0000 180.0000 0000000   0.0000 270.0000 15.90815360    16
